[{"OBJECT_NAME":"PROBA-1","OBJECT_ID":"2001-049B","EPOCH":"2026-03-09T22:57:25.772256","MEAN_MOTION":15.07031721,"ECCENTRICITY":0.00568356,"INCLINATION":97.9638,"RA_OF_ASC_NODE":74.0417,"ARG_OF_PERICENTER":98.1776,"MEAN_ANOMALY":262.5903,"EPHEMERIS_TYPE":0,"CLASSIFICATION_TYPE":"U","NORAD_CAT_ID":26958,"ELEMENT_SET_NO":999,"REV_AT_EPOCH":32867,"BSTAR":0.00028513173,"MEAN_MOTION_DOT":4.362e-5,"MEAN_MOTION_DDOT":0},{"OBJECT_NAME":"SKYBEE-A01","OBJECT_ID":"2025-009BQ","EPOCH":"2026-03-09T22:13:34.187232","MEAN_MOTION":15.20469769,"ECCENTRICITY":0.00044249,"INCLINATION":97.4035,"RA_OF_ASC_NODE":149.2825,"ARG_OF_PERICENTER":337.6504,"MEAN_ANOMALY":22.4538,"EPHEMERIS_TYPE":0,"CLASSIFICATION_TYPE":"U","NORAD_CAT_ID":62671,"ELEMENT_SET_NO":999,"REV_AT_EPOCH":12125,"BSTAR":0.00016670502,"MEAN_MOTION_DOT":3.572e-5,"MEAN_MOTION_DDOT":0}]
